start=new Date('2021-09-23T00:00:00.000Z').valueOf();
sats=[{"ELEMENT_SET_NO":"999","GP_ID":"185266338","ECCENTRICITY":"0.00032510","SEMIMAJOR_AXIS":"6921.238","APOAPSIS":"545.353","RCS_SIZE":"LARGE","PERIOD":"95.507","EPHEMERIS_TYPE":"0","MEAN_ANOMALY":"265.5578","FILE":"3123736","RA_OF_ASC_NODE":"76.5222","PERIAPSIS":"540.853","EPOCH":"2021-09-22T17:38:00.774816","MEAN_MOTION":"15.07742080","DECAY_DATE":null,"COUNTRY_CODE":"US","LAUNCH_DATE":"2020-01-07","CLASSIFICATION_TYPE":"U","BSTAR":"0.00019537000000","OBJECT_TYPE":"PAYLOAD","TIME_SYSTEM":"UTC","MEAN_MOTION_DDOT":"0.0000000000000","TLE_LINE2":"2 44951  53.0030  76.5222 0003251  94.5782 265.5578 15.07742080 95912","NORAD_CAT_ID":"44951","OBJECT_ID":"2020-001AP","ARG_OF_PERICENTER":"94.5782","INCLINATION":"53.0030","TLE_LINE1":"1 44951U 20001AP  21265.73473119  .00002733  00000-0  19537-3 0  9990","REF_FRAME":"TEME","SITE":"AFETR","MEAN_ELEMENT_THEORY":"SGP4","OBJECT_NAME":"STARLINK-1126","CENTER_NAME":"EARTH","MEAN_MOTION_DOT":"0.00002733","REV_AT_EPOCH":"9591"},{"INCLINATION":"53.0545","ARG_OF_PERICENTER":"94.1892","REF_FRAME":"TEME","SITE":"AFETR","TLE_LINE1":"1 44952U 20001AQ  21265.59166585  .00000682  00000-0  64729-4 0  9996","OBJECT_NAME":"STARLINK-1117","MEAN_ELEMENT_THEORY":"SGP4","REV_AT_EPOCH":"9458","MEAN_MOTION_DOT":"0.00000682","CENTER_NAME":"EARTH","OBJECT_TYPE":"PAYLOAD","TIME_SYSTEM":"UTC","MEAN_MOTION_DDOT":"0.0000000000000","NORAD_CAT_ID":"44952","TLE_LINE2":"2 44952  53.0545  79.9274 0002154  94.1892 265.9343 15.06397020 94582","OBJECT_ID":"2020-001AQ","RA_OF_ASC_NODE":"79.9274","FILE":"3123736","EPOCH":"2021-09-22T14:11:59.929440","PERIAPSIS":"545.731","MEAN_MOTION":"15.06397020","DECAY_DATE":null,"COUNTRY_CODE":"US","LAUNCH_DATE":"2020-01-07","BSTAR":"0.00006472900000","CLASSIFICATION_TYPE":"U","ELEMENT_SET_NO":"999","ECCENTRICITY":"0.00021540","GP_ID":"185266590","SEMIMAJOR_AXIS":"6925.358","APOAPSIS":"548.714","RCS_SIZE":"LARGE","PERIOD":"95.592","MEAN_ANOMALY":"265.9343","EPHEMERIS_TYPE":"0"},{"TIME_SYSTEM":"UTC","MEAN_MOTION_DDOT":"0.0000000000000","OBJECT_TYPE":"PAYLOAD","OBJECT_ID":"2020-001AR","TLE_LINE2":"2 44953  53.0550  79.2992 0001861  94.2672 265.8530 15.06395260 95896","NORAD_CAT_ID":"44953","TLE_LINE1":"1 44953U 20001AR  21265.74184254  .00000942  00000-0  82132-4 0  9994","SITE":"AFETR","REF_FRAME":"TEME","ARG_OF_PERICENTER":"94.2672","INCLINATION":"53.0550","CENTER_NAME":"EARTH","REV_AT_EPOCH":"9589","MEAN_MOTION_DOT":"0.00000942","MEAN_ELEMENT_THEORY":"SGP4","OBJECT_NAME":"STARLINK-1124","SEMIMAJOR_AXIS":"6925.363","ELEMENT_SET_NO":"999","GP_ID":"185266818","ECCENTRICITY":"0.00018610","PERIOD":"95.592","EPHEMERIS_TYPE":"0","MEAN_ANOMALY":"265.8530","RCS_SIZE":"LARGE","APOAPSIS":"548.517","FILE":"3123736","RA_OF_ASC_NODE":"79.2992","LAUNCH_DATE":"2020-01-07","CLASSIFICATION_TYPE":"U","BSTAR":"0.00008213200000","PERIAPSIS":"545.939","EPOCH":"2021-09-22T17:48:15.195456","DECAY_DATE":null,"COUNTRY_CODE":"US","MEAN_MOTION":"15.06395260"},{"TLE_LINE2":"2 44954  53.0561  59.4938 0001572  95.2742 264.8426 15.06398391 94820","NORAD_CAT_ID":"44954","OBJECT_ID":"2020-001AS","OBJECT_TYPE":"PAYLOAD","TIME_SYSTEM":"UTC","MEAN_MOTION_DDOT":"0.0000000000000","MEAN_ELEMENT_THEORY":"SGP4","OBJECT_NAME":"STARLINK-1066","CENTER_NAME":"EARTH","REV_AT_EPOCH":"9482","MEAN_MOTION_DOT":"-0.00000100","ARG_OF_PERICENTER":"95.2742","INCLINATION":"53.0561","TLE_LINE1":"1 44954U 20001AS  21265.68934423 -.00000100  00000-0  12215-4 0  9991","SITE":"AFETR","REF_FRAME":"TEME","APOAPSIS":"548.307","RCS_SIZE":"LARGE","PERIOD":"95.592","EPHEMERIS_TYPE":"0","MEAN_ANOMALY":"264.8426","ELEMENT_SET_NO":"999","ECCENTRICITY":"0.00015720","GP_ID":"185266089","SEMIMAJOR_AXIS":"6925.353","PERIAPSIS":"546.130","EPOCH":"2021-09-22T16:32:39.341472","MEAN_MOTION":"15.06398391","DECAY_DATE":null,"COUNTRY_CODE":"US","LAUNCH_DATE":"2020-01-07","CLASSIFICATION_TYPE":"U","BSTAR":"0.00001221500000","FILE":"3123736","RA_OF_ASC_NODE":"59.4938"},{"DECAY_DATE":null,"MEAN_MOTION":"15.06394084","COUNTRY_CODE":"US","EPOCH":"2021-09-22T16:43:16.427424","PERIAPSIS":"545.980","BSTAR":"0.00011073000000","CLASSIFICATION_TYPE":"U","LAUNCH_DATE":"2020-01-07","FILE":"3123736","RA_OF_ASC_NODE":"59.4619","APOAPSIS":"548.484","RCS_SIZE":"LARGE","MEAN_ANOMALY":"271.0609","EPHEMERIS_TYPE":"0","PERIOD":"95.593","ECCENTRICITY":"0.00018080","GP_ID":"185265839","ELEMENT_SET_NO":"999","SEMIMAJOR_AXIS":"6925.367","OBJECT_NAME":"STARLINK-1069","MEAN_ELEMENT_THEORY":"SGP4","REV_AT_EPOCH":"9482","MEAN_MOTION_DOT":"0.00001368","CENTER_NAME":"EARTH","INCLINATION":"53.0555","ARG_OF_PERICENTER":"89.0587","SITE":"AFETR","REF_FRAME":"TEME","TLE_LINE1":"1 44955U 20001AT  21265.69671791  .00001368  00000-0  11073-3 0  9995","TLE_LINE2":"2 44955  53.0555  59.4619 0001808  89.0587 271.0609 15.06394084 94828","NORAD_CAT_ID":"44955","OBJECT_ID":"2020-001AT","OBJECT_TYPE":"PAYLOAD","MEAN_MOTION_DDOT":"0.0000000000000","TIME_SYSTEM":"UTC"},{"ELEMENT_SET_NO":"999","ECCENTRICITY":"0.00014520","GP_ID":"185267090","SEMIMAJOR_AXIS":"6925.354","RCS_SIZE":"LARGE","APOAPSIS":"548.224","PERIOD":"95.592","EPHEMERIS_TYPE":"0","MEAN_ANOMALY":"257.2553","FILE":"3123736","RA_OF_ASC_NODE":"59.4788","PERIAPSIS":"546.213","EPOCH":"2021-09-22T16:37:57.331488","COUNTRY_CODE":"US","DECAY_DATE":null,"MEAN_MOTION":"15.06398255","LAUNCH_DATE":"2020-01-07","CLASSIFICATION_TYPE":"U","BSTAR":"0.00009685100000","OBJECT_TYPE":"PAYLOAD","TIME_SYSTEM":"UTC","MEAN_MOTION_DDOT":"0.0000000000000","NORAD_CAT_ID":"44956","TLE_LINE2":"2 44956  53.0552  59.4788 0001452 102.8598 257.2553 15.06398255 94888","OBJECT_ID":"2020-001AU","ARG_OF_PERICENTER":"102.8598","INCLINATION":"53.0552","TLE_LINE1":"1 44956U 20001AU  21265.69302467  .00001161  00000-0  96851-4 0  9996","SITE":"AFETR","REF_FRAME":"TEME","MEAN_ELEMENT_THEORY":"SGP4","OBJECT_NAME":"STARLINK-1070","CENTER_NAME":"EARTH","MEAN_MOTION_DOT":"0.00001161","REV_AT_EPOCH":"9488"},{"APOAPSIS":"548.701","RCS_SIZE":"LARGE","MEAN_ANOMALY":"268.9261","EPHEMERIS_TYPE":"0","PERIOD":"95.592","GP_ID":"185267318","ECCENTRICITY":"0.00021270","ELEMENT_SET_NO":"999","SEMIMAJOR_AXIS":"6925.363","COUNTRY_CODE":"US","DECAY_DATE":null,"MEAN_MOTION":"15.06395296","EPOCH":"2021-09-22T17:15:06.623424","PERIAPSIS":"545.755","BSTAR":"-0.00003192500000","CLASSIFICATION_TYPE":"U","LAUNCH_DATE":"2020-01-07","FILE":"3123736","RA_OF_ASC_NODE":"59.3615","TLE_LINE2":"2 44957  53.0554  59.3615 0002127  91.1971 268.9261 15.06395296 94881","NORAD_CAT_ID":"44957","OBJECT_ID":"2020-001AV","OBJECT_TYPE":"PAYLOAD","MEAN_MOTION_DDOT":"0.0000000000000","TIME_SYSTEM":"UTC","OBJECT_NAME":"STARLINK-1074","MEAN_ELEMENT_THEORY":"SGP4","REV_AT_EPOCH":"9488","MEAN_MOTION_DOT":"-0.00000757","CENTER_NAME":"EARTH","INCLINATION":"53.0554","ARG_OF_PERICENTER":"91.1971","REF_FRAME":"TEME","SITE":"AFETR","TLE_LINE1":"1 44957U 20001AV  21265.71882666 -.00000757  00000-0 -31925-4 0  9997"},{"OBJECT_ID":"2020-001AX","NORAD_CAT_ID":"44959","TLE_LINE2":"2 44959  53.0560  59.2938 0001894  92.1218 267.9988 15.06400663 94882","TIME_SYSTEM":"UTC","MEAN_MOTION_DDOT":"0.0000000000000","OBJECT_TYPE":"PAYLOAD","MEAN_MOTION_DOT":"0.00001244","REV_AT_EPOCH":"9488","CENTER_NAME":"EARTH","OBJECT_NAME":"STARLINK-1076","MEAN_ELEMENT_THEORY":"SGP4","SITE":"AFETR","REF_FRAME":"TEME","TLE_LINE1":"1 44959U 20001AX  21265.73358359  .00001244  00000-0  10238-3 0  9991","INCLINATION":"53.0560","ARG_OF_PERICENTER":"92.1218","PERIOD":"95.592","MEAN_ANOMALY":"267.9988","EPHEMERIS_TYPE":"0","RCS_SIZE":"LARGE","APOAPSIS":"548.523","SEMIMAJOR_AXIS":"6925.347","ELEMENT_SET_NO":"999","GP_ID":"185265590","ECCENTRICITY":"0.00018940","LAUNCH_DATE":"2020-01-07","BSTAR":"0.00010238000000","CLASSIFICATION_TYPE":"U","EPOCH":"2021-09-22T17:36:21.622176","PERIAPSIS":"545.900","DECAY_DATE":null,"COUNTRY_CODE":"US","MEAN_MOTION":"15.06400663","RA_OF_ASC_NODE":"59.2938","FILE":"3123736"},{"OBJECT_ID":"2020-001AZ","TLE_LINE2":"2 44961  53.0554  60.1498 0001487  87.0717 273.0442 15.06401784 94861","NORAD_CAT_ID":"44961","TIME_SYSTEM":"UTC","MEAN_MOTION_DDOT":"0.0000000000000","OBJECT_TYPE":"PAYLOAD","CENTER_NAME":"EARTH","MEAN_MOTION_DOT":"0.00001480","REV_AT_EPOCH":"9486","MEAN_ELEMENT_THEORY":"SGP4","OBJECT_NAME":"STARLINK-1080","TLE_LINE1":"1 44961U 20001AZ  21265.54189915  .00001480  00000-0  11820-3 0  9993","SITE":"AFETR","REF_FRAME":"TEME","ARG_OF_PERICENTER":"87.0717","INCLINATION":"53.0554","PERIOD":"95.592","EPHEMERIS_TYPE":"0","MEAN_ANOMALY":"273.0442","APOAPSIS":"548.238","RCS_SIZE":"LARGE","SEMIMAJOR_AXIS":"6925.343","ELEMENT_SET_NO":"999","ECCENTRICITY":"0.00014870","GP_ID":"185266339","LAUNCH_DATE":"2020-01-07","CLASSIFICATION_TYPE":"U","BSTAR":"0.00011820000000","PERIAPSIS":"546.178","EPOCH":"2021-09-22T13:00:20.086560","DECAY_DATE":null,"COUNTRY_CODE":"US","MEAN_MOTION":"15.06401784","RA_OF_ASC_NODE":"60.1498","FILE":"3123736"},{"ARG_OF_PERICENTER":"359.8401","INCLINATION":"53.0553","TLE_LINE1":"1 44962U 20001BA  21265.71683331  .00920372  37680-3  25367-2 0  9991","SITE":"AFETR","REF_FRAME":"TEME","MEAN_ELEMENT_THEORY":"SGP4","OBJECT_NAME":"STARLINK-1081","CENTER_NAME":"EARTH","REV_AT_EPOCH":"9565","MEAN_MOTION_DOT":"0.00920372","OBJECT_TYPE":"PAYLOAD","TIME_SYSTEM":"UTC","MEAN_MOTION_DDOT":"0.0003768000000","TLE_LINE2":"2 44962  53.0553   3.8627 0012970 359.8401   0.2619 15.93244008 95652","NORAD_CAT_ID":"44962","OBJECT_ID":"2020-001BA","FILE":"3123736","RA_OF_ASC_NODE":"3.8627","PERIAPSIS":"284.561","EPOCH":"2021-09-22T17:12:14.397984","COUNTRY_CODE":"US","DECAY_DATE":null,"MEAN_MOTION":"15.93244008","LAUNCH_DATE":"2020-01-07","CLASSIFICATION_TYPE":"U","BSTAR":"0.00253670000000","ELEMENT_SET_NO":"999","GP_ID":"185266591","ECCENTRICITY":"0.00129700","SEMIMAJOR_AXIS":"6671.349","RCS_SIZE":"LARGE","APOAPSIS":"301.867","PERIOD":"90.382","EPHEMERIS_TYPE":"0","MEAN_ANOMALY":"0.2619"}];
